[{"OBJECT_NAME":"STARLINK-36882","OBJECT_ID":"2026-038V","EPOCH":"2026-03-10T04:00:01.999584","MEAN_MOTION":15.88702256,"ECCENTRICITY":0.0001133,"INCLINATION":97.2685,"RA_OF_ASC_NODE":79.5049,"ARG_OF_PERICENTER":89.8962,"MEAN_ANOMALY":233.0661,"EPHEMERIS_TYPE":0,"CLASSIFICATION_TYPE":"U","NORAD_CAT_ID":67980,"ELEMENT_SET_NO":999,"REV_AT_EPOCH":327,"BSTAR":-0.0066761,"MEAN_MOTION_DOT":-0.01632044,"MEAN_MOTION_DDOT":0},{"OBJECT_NAME":"STARLINK-36874","OBJECT_ID":"2026-038W","EPOCH":"2026-03-10T02:00:03.000384","MEAN_MOTION":15.89294042,"ECCENTRICITY":0.0001464,"INCLINATION":97.2681,"RA_OF_ASC_NODE":79.4206,"ARG_OF_PERICENTER":80.7593,"MEAN_ANOMALY":135.5271,"EPHEMERIS_TYPE":0,"CLASSIFICATION_TYPE":"U","NORAD_CAT_ID":67981,"ELEMENT_SET_NO":999,"REV_AT_EPOCH":326,"BSTAR":-0.0064349,"MEAN_MOTION_DOT":-0.01622434,"MEAN_MOTION_DDOT":0},{"OBJECT_NAME":"STARLINK-36879","OBJECT_ID":"2026-038X","EPOCH":"2026-03-10T02:00:03.000384","MEAN_MOTION":15.89451873,"ECCENTRICITY":0.0001423,"INCLINATION":97.2675,"RA_OF_ASC_NODE":79.4225,"ARG_OF_PERICENTER":84.2743,"MEAN_ANOMALY":136.9743,"EPHEMERIS_TYPE":0,"CLASSIFICATION_TYPE":"U","NORAD_CAT_ID":67982,"ELEMENT_SET_NO":999,"REV_AT_EPOCH":326,"BSTAR":-0.0063764,"MEAN_MOTION_DOT":-0.01829211,"MEAN_MOTION_DDOT":0.00089907},{"OBJECT_NAME":"STARLINK-36867","OBJECT_ID":"2026-038Y","EPOCH":"2026-03-10T02:00:03.000384","MEAN_MOTION":15.8976647,"ECCENTRICITY":0.0001446,"INCLINATION":97.2671,"RA_OF_ASC_NODE":79.427,"ARG_OF_PERICENTER":83.8848,"MEAN_ANOMALY":147.4654,"EPHEMERIS_TYPE":0,"CLASSIFICATION_TYPE":"U","NORAD_CAT_ID":67983,"ELEMENT_SET_NO":999,"REV_AT_EPOCH":326,"BSTAR":-0.0062182,"MEAN_MOTION_DOT":-0.01812308,"MEAN_MOTION_DDOT":0.00088639},{"OBJECT_NAME":"STARLINK-36266","OBJECT_ID":"2026-038Z","EPOCH":"2026-03-10T02:00:03.000384","MEAN_MOTION":15.89625211,"ECCENTRICITY":0.0001453,"INCLINATION":97.2674,"RA_OF_ASC_NODE":79.4252,"ARG_OF_PERICENTER":88.8894,"MEAN_ANOMALY":137.9198,"EPHEMERIS_TYPE":0,"CLASSIFICATION_TYPE":"U","NORAD_CAT_ID":67984,"ELEMENT_SET_NO":999,"REV_AT_EPOCH":323,"BSTAR":-0.0062908,"MEAN_MOTION_DOT":-0.01820464,"MEAN_MOTION_DDOT":0.00089259},{"OBJECT_NAME":"STARLINK-36802","OBJECT_ID":"2026-038AA","EPOCH":"2026-03-10T02:00:03.000384","MEAN_MOTION":15.89888673,"ECCENTRICITY":0.0001339,"INCLINATION":97.2669,"RA_OF_ASC_NODE":79.4285,"ARG_OF_PERICENTER":83.7355,"MEAN_ANOMALY":151.7606,"EPHEMERIS_TYPE":0,"CLASSIFICATION_TYPE":"U","NORAD_CAT_ID":67985,"ELEMENT_SET_NO":999,"REV_AT_EPOCH":326,"BSTAR":-0.0061104,"MEAN_MOTION_DOT":-0.01792034,"MEAN_MOTION_DDOT":0.00086905},{"OBJECT_NAME":"STARLINK-36535","OBJECT_ID":"2026-039A","EPOCH":"2026-03-10T02:00:03.000384","MEAN_MOTION":15.81980344,"ECCENTRICITY":0.0001575,"INCLINATION":42.9991,"RA_OF_ASC_NODE":52.5264,"ARG_OF_PERICENTER":250.1887,"MEAN_ANOMALY":239.8595,"EPHEMERIS_TYPE":0,"CLASSIFICATION_TYPE":"U","NORAD_CAT_ID":67986,"ELEMENT_SET_NO":999,"REV_AT_EPOCH":294,"BSTAR":0.00017368,"MEAN_MOTION_DOT":0.00036128,"MEAN_MOTION_DDOT":0},{"OBJECT_NAME":"STARLINK-36744","OBJECT_ID":"2026-039B","EPOCH":"2026-03-10T02:00:03.000384","MEAN_MOTION":15.82032353,"ECCENTRICITY":0.0001775,"INCLINATION":42.9991,"RA_OF_ASC_NODE":52.5154,"ARG_OF_PERICENTER":276.855,"MEAN_ANOMALY":217.4494,"EPHEMERIS_TYPE":0,"CLASSIFICATION_TYPE":"U","NORAD_CAT_ID":67987,"ELEMENT_SET_NO":999,"REV_AT_EPOCH":294,"BSTAR":-0.000309,"MEAN_MOTION_DOT":-0.00065163,"MEAN_MOTION_DDOT":0},{"OBJECT_NAME":"STARLINK-36734","OBJECT_ID":"2026-039C","EPOCH":"2026-03-10T02:00:03.000384","MEAN_MOTION":15.82032746,"ECCENTRICITY":0.0001541,"INCLINATION":42.9989,"RA_OF_ASC_NODE":52.5044,"ARG_OF_PERICENTER":258.7237,"MEAN_ANOMALY":239.8433,"EPHEMERIS_TYPE":0,"CLASSIFICATION_TYPE":"U","NORAD_CAT_ID":67988,"ELEMENT_SET_NO":999,"REV_AT_EPOCH":294,"BSTAR":-0.00018064,"MEAN_MOTION_DOT":-0.0003843,"MEAN_MOTION_DDOT":0},{"OBJECT_NAME":"STARLINK-36957","OBJECT_ID":"2026-039D","EPOCH":"2026-03-10T02:00:03.000384","MEAN_MOTION":15.82149769,"ECCENTRICITY":0.0002223,"INCLINATION":42.9988,"RA_OF_ASC_NODE":52.4933,"ARG_OF_PERICENTER":269.8963,"MEAN_ANOMALY":232.8811,"EPHEMERIS_TYPE":0,"CLASSIFICATION_TYPE":"U","NORAD_CAT_ID":67989,"ELEMENT_SET_NO":999,"REV_AT_EPOCH":294,"BSTAR":-0.0011888,"MEAN_MOTION_DOT":-0.0024548,"MEAN_MOTION_DDOT":0},{"OBJECT_NAME":"STARLINK-36951","OBJECT_ID":"2026-039E","EPOCH":"2026-03-09T22:00:01.999584","MEAN_MOTION":15.83119469,"ECCENTRICITY":0.00015986,"INCLINATION":42.9986,"RA_OF_ASC_NODE":53.5041,"ARG_OF_PERICENTER":252.7697,"MEAN_ANOMALY":23.1641,"EPHEMERIS_TYPE":0,"CLASSIFICATION_TYPE":"U","NORAD_CAT_ID":67990,"ELEMENT_SET_NO":999,"REV_AT_EPOCH":291,"BSTAR":-0.0066095736,"MEAN_MOTION_DOT":-0.01292133,"MEAN_MOTION_DDOT":0},{"OBJECT_NAME":"STARLINK-36941","OBJECT_ID":"2026-039F","EPOCH":"2026-03-10T02:00:03.000384","MEAN_MOTION":15.82656571,"ECCENTRICITY":0.0001641,"INCLINATION":42.9986,"RA_OF_ASC_NODE":52.4718,"ARG_OF_PERICENTER":257.2286,"MEAN_ANOMALY":253.8117,"EPHEMERIS_TYPE":0,"CLASSIFICATION_TYPE":"U","NORAD_CAT_ID":67991,"ELEMENT_SET_NO":999,"REV_AT_EPOCH":294,"BSTAR":-0.004599,"MEAN_MOTION_DOT":-0.00900745,"MEAN_MOTION_DDOT":0},{"OBJECT_NAME":"STARLINK-36950","OBJECT_ID":"2026-039G","EPOCH":"2026-03-10T02:00:03.000384","MEAN_MOTION":15.82893585,"ECCENTRICITY":0.0001314,"INCLINATION":42.9989,"RA_OF_ASC_NODE":52.4615,"ARG_OF_PERICENTER":271.9178,"MEAN_ANOMALY":243.2335,"EPHEMERIS_TYPE":0,"CLASSIFICATION_TYPE":"U","NORAD_CAT_ID":67992,"ELEMENT_SET_NO":999,"REV_AT_EPOCH":294,"BSTAR":-0.0061504,"MEAN_MOTION_DOT":-0.01200689,"MEAN_MOTION_DDOT":0},{"OBJECT_NAME":"STARLINK-36975","OBJECT_ID":"2026-039H","EPOCH":"2026-03-10T02:00:03.000384","MEAN_MOTION":15.8314164,"ECCENTRICITY":0.0001495,"INCLINATION":42.9987,"RA_OF_ASC_NODE":52.4515,"ARG_OF_PERICENTER":270.9696,"MEAN_ANOMALY":248.2466,"EPHEMERIS_TYPE":0,"CLASSIFICATION_TYPE":"U","NORAD_CAT_ID":67993,"ELEMENT_SET_NO":999,"REV_AT_EPOCH":294,"BSTAR":-0.0072198,"MEAN_MOTION_DOT":-0.01424869,"MEAN_MOTION_DDOT":0},{"OBJECT_NAME":"STARLINK-36993","OBJECT_ID":"2026-039J","EPOCH":"2026-03-10T02:00:03.000384","MEAN_MOTION":15.83296949,"ECCENTRICITY":0.0001454,"INCLINATION":42.9988,"RA_OF_ASC_NODE":52.4417,"ARG_OF_PERICENTER":263.8354,"MEAN_ANOMALY":259.4657,"EPHEMERIS_TYPE":0,"CLASSIFICATION_TYPE":"U","NORAD_CAT_ID":67994,"ELEMENT_SET_NO":999,"REV_AT_EPOCH":294,"BSTAR":-0.0073899,"MEAN_MOTION_DOT":-0.01464202,"MEAN_MOTION_DDOT":0},{"OBJECT_NAME":"STARLINK-36968","OBJECT_ID":"2026-039K","EPOCH":"2026-03-10T02:00:03.000384","MEAN_MOTION":15.83478486,"ECCENTRICITY":0.000138,"INCLINATION":42.9986,"RA_OF_ASC_NODE":52.4203,"ARG_OF_PERICENTER":265.7123,"MEAN_ANOMALY":265.9392,"EPHEMERIS_TYPE":0,"CLASSIFICATION_TYPE":"U","NORAD_CAT_ID":67995,"ELEMENT_SET_NO":999,"REV_AT_EPOCH":294,"BSTAR":-0.007988,"MEAN_MOTION_DOT":-0.0157998,"MEAN_MOTION_DDOT":0}]
