STARLINK-36882          
1 67980U 26038V   26069.16668981 -.01632044  00000+0 -66761-2 0  9996
2 67980  97.2685  79.5049 0001133  89.8962 233.0661 15.88702256  3270
STARLINK-36874          
1 67981U 26038W   26069.08336806 -.01622434  00000+0 -64349-2 0  9998
2 67981  97.2681  79.4206 0001464  80.7593 135.5271 15.89294042  3260
STARLINK-36879          
1 67982U 26038X   26069.08336806 -.01829211  89907-3 -63764-2 0  9998
2 67982  97.2675  79.4225 0001423  84.2743 136.9743 15.89451873  3262
STARLINK-36867          
1 67983U 26038Y   26069.08336806 -.01812308  88639-3 -62182-2 0  9992
2 67983  97.2671  79.4270 0001446  83.8848 147.4654 15.89766470  3265
STARLINK-36266          
1 67984U 26038Z   26069.08336806 -.01820464  89259-3 -62908-2 0  9990
2 67984  97.2674  79.4252 0001453  88.8894 137.9198 15.89625211  3234
STARLINK-36802          
1 67985U 26038AA  26069.08336806 -.01792034  86905-3 -61104-2 0  9994
2 67985  97.2669  79.4285 0001339  83.7355 151.7606 15.89888673  3268
STARLINK-36535          
1 67986U 26039A   26069.08336806  .00036128  00000+0  17368-3 0  9990
2 67986  42.9991  52.5264 0001575 250.1887 239.8595 15.81980344  2944
STARLINK-36744          
1 67987U 26039B   26069.08336806 -.00065163  00000+0 -30900-3 0  9991
2 67987  42.9991  52.5154 0001775 276.8550 217.4494 15.82032353  2946
STARLINK-36734          
1 67988U 26039C   26069.08336806 -.00038430  00000+0 -18064-3 0  9996
2 67988  42.9989  52.5044 0001541 258.7237 239.8433 15.82032746  2941
STARLINK-36957          
1 67989U 26039D   26069.08336806 -.00245480  00000+0 -11888-2 0  9998
2 67989  42.9988  52.4933 0002223 269.8963 232.8811 15.82149769  2941
STARLINK-36951          
1 67990U 26039E   26068.91668981 -.01292133  00000+0 -66096-2 0  9992
2 67990  42.9986  53.5041 0001598 252.7697  23.1641 15.83119469  2916
STARLINK-36941          
1 67991U 26039F   26069.08336806 -.00900745  00000+0 -45990-2 0  9994
2 67991  42.9986  52.4718 0001641 257.2286 253.8117 15.82656571  2941
STARLINK-36950          
1 67992U 26039G   26069.08336806 -.01200689  00000+0 -61504-2 0  9995
2 67992  42.9989  52.4615 0001314 271.9178 243.2335 15.82893585  2944
STARLINK-36975          
1 67993U 26039H   26069.08336806 -.01424869  00000+0 -72198-2 0  9995
2 67993  42.9987  52.4515 0001495 270.9696 248.2466 15.83141640  2945
STARLINK-36993          
1 67994U 26039J   26069.08336806 -.01464202  00000+0 -73899-2 0  9990
2 67994  42.9988  52.4417 0001454 263.8354 259.4657 15.83296949  2944
STARLINK-36968          
1 67995U 26039K   26069.08336806 -.01579980  00000+0 -79880-2 0  9997
2 67995  42.9986  52.4203 0001380 265.7123 265.9392 15.83478486  2945
